[{"OBJECT_NAME":"STARLINK-3758","OBJECT_ID":"2022-041AN","EPOCH":"2026-03-09T08:32:28.540896","MEAN_MOTION":15.08839949,"ECCENTRICITY":0.0001376,"INCLINATION":53.2165,"RA_OF_ASC_NODE":100.6189,"ARG_OF_PERICENTER":94.6277,"MEAN_ANOMALY":265.4873,"EPHEMERIS_TYPE":0,"CLASSIFICATION_TYPE":"U","NORAD_CAT_ID":52297,"ELEMENT_SET_NO":999,"REV_AT_EPOCH":21445,"BSTAR":-1.2182526e-5,"MEAN_MOTION_DOT":-4.82e-6,"MEAN_MOTION_DDOT":0},{"OBJECT_NAME":"SITRO-AIS 28","OBJECT_ID":"2024-039U","EPOCH":"2026-03-09T22:53:08.846304","MEAN_MOTION":14.92876764,"ECCENTRICITY":0.01445021,"INCLINATION":95.3938,"RA_OF_ASC_NODE":167.1162,"ARG_OF_PERICENTER":314.581,"MEAN_ANOMALY":44.3693,"EPHEMERIS_TYPE":0,"CLASSIFICATION_TYPE":"U","NORAD_CAT_ID":59071,"ELEMENT_SET_NO":999,"REV_AT_EPOCH":10993,"BSTAR":0.0004111707,"MEAN_MOTION_DOT":5.19e-5,"MEAN_MOTION_DDOT":0}]
